CCSDS_OMM_VERS = 2.0
CREATION_DATE  = 
ORIGINATOR     = 

OBJECT_NAME    = COSMOS 2598 (RODNIK-S 23)
OBJECT_ID      = 2025-273B
CENTER_NAME    = EARTH
REF_FRAME      = TEME
TIME_SYSTEM    = UTC
MEAN_ELEMENT_THEORY = SGP/SGP4

EPOCH          = 2025-12-10T12:49:39.738144
MEAN_MOTION    = 12.42861583
ECCENTRICITY   = .0007246
INCLINATION    = 82.5033
RA_OF_ASC_NODE = 287.8213
ARG_OF_PERICENTER = 256.5087
MEAN_ANOMALY   = 103.5185

EPHEMERIS_TYPE = 0
CLASSIFICATION_TYPE = U
NORAD_CAT_ID   = 66648
ELEMENT_SET_NO = 999
REV_AT_EPOCH   = 186
BSTAR          = .12968E-3
MEAN_MOTION_DOT = .28E-6
MEAN_MOTION_DDOT = 0

CCSDS_OMM_VERS = 2.0
CREATION_DATE  = 
ORIGINATOR     = 

OBJECT_NAME    = COSMOS 2599 (RODNIK-S 24)
OBJECT_ID      = 2025-273C
CENTER_NAME    = EARTH
REF_FRAME      = TEME
TIME_SYSTEM    = UTC
MEAN_ELEMENT_THEORY = SGP/SGP4

EPOCH          = 2025-12-10T09:10:48.874368
MEAN_MOTION    = 12.41671984
ECCENTRICITY   = .0008136
INCLINATION    = 82.5026
RA_OF_ASC_NODE = 287.9284
ARG_OF_PERICENTER = 305.4049
MEAN_ANOMALY   = 54.6269

EPHEMERIS_TYPE = 0
CLASSIFICATION_TYPE = U
NORAD_CAT_ID   = 66649
ELEMENT_SET_NO = 999
REV_AT_EPOCH   = 184
BSTAR          = .4001E-3
MEAN_MOTION_DOT = .64E-6
MEAN_MOTION_DDOT = 0

CCSDS_OMM_VERS = 2.0
CREATION_DATE  = 
ORIGINATOR     = 

OBJECT_NAME    = BEE-1000
OBJECT_ID      = 2025-274A
CENTER_NAME    = EARTH
REF_FRAME      = TEME
TIME_SYSTEM    = UTC
MEAN_ELEMENT_THEORY = SGP/SGP4

EPOCH          = 2025-12-10T08:06:01.522368
MEAN_MOTION    = 14.91647427
ECCENTRICITY   = .0010419
INCLINATION    = 97.7386
RA_OF_ASC_NODE = 271.5692
ARG_OF_PERICENTER = 260.6819
MEAN_ANOMALY   = 99.3221

EPHEMERIS_TYPE = 0
CLASSIFICATION_TYPE = U
NORAD_CAT_ID   = 66650
ELEMENT_SET_NO = 999
REV_AT_EPOCH   = 204
BSTAR          = .2871E-3
MEAN_MOTION_DOT = .2831E-4
MEAN_MOTION_DDOT = 0

CCSDS_OMM_VERS = 2.0
CREATION_DATE  = 
ORIGINATOR     = 

OBJECT_NAME    = 2025-274B
OBJECT_ID      = 2025-274B
CENTER_NAME    = EARTH
REF_FRAME      = TEME
TIME_SYSTEM    = UTC
MEAN_ELEMENT_THEORY = SGP/SGP4

EPOCH          = 2025-12-10T08:04:59.363616
MEAN_MOTION    = 14.91766828
ECCENTRICITY   = .0010712
INCLINATION    = 97.7379
RA_OF_ASC_NODE = 271.5695
ARG_OF_PERICENTER = 259.8206
MEAN_ANOMALY   = 100.1804

EPHEMERIS_TYPE = 0
CLASSIFICATION_TYPE = U
NORAD_CAT_ID   = 66651
ELEMENT_SET_NO = 999
REV_AT_EPOCH   = 204
BSTAR          = .61088E-3
MEAN_MOTION_DOT = .6109E-4
MEAN_MOTION_DDOT = 0

CCSDS_OMM_VERS = 2.0
CREATION_DATE  = 
ORIGINATOR     = 

OBJECT_NAME    = 2025-274C
OBJECT_ID      = 2025-274C
CENTER_NAME    = EARTH
REF_FRAME      = TEME
TIME_SYSTEM    = UTC
MEAN_ELEMENT_THEORY = SGP/SGP4

EPOCH          = 2025-12-10T08:03:09.842976
MEAN_MOTION    = 14.91880135
ECCENTRICITY   = .0010411
INCLINATION    = 97.7386
RA_OF_ASC_NODE = 271.5720
ARG_OF_PERICENTER = 266.7260
MEAN_ANOMALY   = 93.2768

EPHEMERIS_TYPE = 0
CLASSIFICATION_TYPE = U
NORAD_CAT_ID   = 66652
ELEMENT_SET_NO = 999
REV_AT_EPOCH   = 204
BSTAR          = .38582E-3
MEAN_MOTION_DOT = .3847E-4
MEAN_MOTION_DDOT = 0

CCSDS_OMM_VERS = 2.0
CREATION_DATE  = 
ORIGINATOR     = 

OBJECT_NAME    = 2025-274D
OBJECT_ID      = 2025-274D
CENTER_NAME    = EARTH
REF_FRAME      = TEME
TIME_SYSTEM    = UTC
MEAN_ELEMENT_THEORY = SGP/SGP4

EPOCH          = 2025-12-10T08:03:04.463712
MEAN_MOTION    = 14.91884330
ECCENTRICITY   = .0011259
INCLINATION    = 97.7384
RA_OF_ASC_NODE = 271.5718
ARG_OF_PERICENTER = 262.6994
MEAN_ANOMALY   = 97.2945

EPHEMERIS_TYPE = 0
CLASSIFICATION_TYPE = U
NORAD_CAT_ID   = 66653
ELEMENT_SET_NO = 999
REV_AT_EPOCH   = 204
BSTAR          = .39192E-3
MEAN_MOTION_DOT = .391E-4
MEAN_MOTION_DDOT = 0

CCSDS_OMM_VERS = 2.0
CREATION_DATE  = 
ORIGINATOR     = 

OBJECT_NAME    = JACK E
OBJECT_ID      = 2025-274E
CENTER_NAME    = EARTH
REF_FRAME      = TEME
TIME_SYSTEM    = UTC
MEAN_ELEMENT_THEORY = SGP/SGP4

EPOCH          = 2025-12-10T08:00:52.867008
MEAN_MOTION    = 14.92059862
ECCENTRICITY   = .0011853
INCLINATION    = 97.7386
RA_OF_ASC_NODE = 271.5743
ARG_OF_PERICENTER = 264.3937
MEAN_ANOMALY   = 95.5930

EPHEMERIS_TYPE = 0
CLASSIFICATION_TYPE = U
NORAD_CAT_ID   = 66654
ELEMENT_SET_NO = 999
REV_AT_EPOCH   = 204
BSTAR          = .43316E-3
MEAN_MOTION_DOT = .4347E-4
MEAN_MOTION_DDOT = 0

CCSDS_OMM_VERS = 2.0
CREATION_DATE  = 
ORIGINATOR     = 

OBJECT_NAME    = 2025-274F
OBJECT_ID      = 2025-274F
CENTER_NAME    = EARTH
REF_FRAME      = TEME
TIME_SYSTEM    = UTC
MEAN_ELEMENT_THEORY = SGP/SGP4

EPOCH          = 2025-12-08T18:57:10.718496
MEAN_MOTION    = 14.92504145
ECCENTRICITY   = .00054909
INCLINATION    = 97.7329
RA_OF_ASC_NODE = 270.0601
ARG_OF_PERICENTER = 323.8556
MEAN_ANOMALY   = 36.2292

EPHEMERIS_TYPE = 0
CLASSIFICATION_TYPE = U
NORAD_CAT_ID   = 66655
ELEMENT_SET_NO = 999
REV_AT_EPOCH   = 181
BSTAR          = .1516128E-2
MEAN_MOTION_DOT = .15539E-3
MEAN_MOTION_DDOT = 0

CCSDS_OMM_VERS = 2.0
CREATION_DATE  = 
ORIGINATOR     = 

OBJECT_NAME    = 2025-274G
OBJECT_ID      = 2025-274G
CENTER_NAME    = EARTH
REF_FRAME      = TEME
TIME_SYSTEM    = UTC
MEAN_ELEMENT_THEORY = SGP/SGP4

EPOCH          = 2025-12-10T11:11:35.371104
MEAN_MOTION    = 14.92250338
ECCENTRICITY   = .0012463
INCLINATION    = 97.7384
RA_OF_ASC_NODE = 271.7079
ARG_OF_PERICENTER = 265.7043
MEAN_ANOMALY   = 94.2752

EPHEMERIS_TYPE = 0
CLASSIFICATION_TYPE = U
NORAD_CAT_ID   = 66656
ELEMENT_SET_NO = 999
REV_AT_EPOCH   = 206
BSTAR          = .47377E-3
MEAN_MOTION_DOT = .4784E-4
MEAN_MOTION_DDOT = 0

CCSDS_OMM_VERS = 2.0
CREATION_DATE  = 
ORIGINATOR     = 

OBJECT_NAME    = SPIRONE
OBJECT_ID      = 2025-274H
CENTER_NAME    = EARTH
REF_FRAME      = TEME
TIME_SYSTEM    = UTC
MEAN_ELEMENT_THEORY = SGP/SGP4

EPOCH          = 2025-12-10T07:56:07.301184
MEAN_MOTION    = 14.92428566
ECCENTRICITY   = .0010893
INCLINATION    = 97.7383
RA_OF_ASC_NODE = 271.5777
ARG_OF_PERICENTER = 285.0273
MEAN_ANOMALY   = 74.9740

EPHEMERIS_TYPE = 0
CLASSIFICATION_TYPE = U
NORAD_CAT_ID   = 66657
ELEMENT_SET_NO = 999
REV_AT_EPOCH   = 204
BSTAR          = .4613E-3
MEAN_MOTION_DOT = .4676E-4
MEAN_MOTION_DDOT = 0

CCSDS_OMM_VERS = 2.0
CREATION_DATE  = 
ORIGINATOR     = 

OBJECT_NAME    = 2025-274J
OBJECT_ID      = 2025-274J
CENTER_NAME    = EARTH
REF_FRAME      = TEME
TIME_SYSTEM    = UTC
MEAN_ELEMENT_THEORY = SGP/SGP4

EPOCH          = 2025-12-10T07:53:49.393824
MEAN_MOTION    = 14.92600467
ECCENTRICITY   = .0011492
INCLINATION    = 97.7383
RA_OF_ASC_NODE = 271.5800
ARG_OF_PERICENTER = 288.0927
MEAN_ANOMALY   = 71.9040

EPHEMERIS_TYPE = 0
CLASSIFICATION_TYPE = U
NORAD_CAT_ID   = 66658
ELEMENT_SET_NO = 999
REV_AT_EPOCH   = 204
BSTAR          = .44167E-3
MEAN_MOTION_DOT = .4495E-4
MEAN_MOTION_DDOT = 0

CCSDS_OMM_VERS = 2.0
CREATION_DATE  = 
ORIGINATOR     = 

OBJECT_NAME    = JACK K
OBJECT_ID      = 2025-274K
CENTER_NAME    = EARTH
REF_FRAME      = TEME
TIME_SYSTEM    = UTC
MEAN_ELEMENT_THEORY = SGP/SGP4

EPOCH          = 2025-12-10T07:51:22.608000
MEAN_MOTION    = 14.92785796
ECCENTRICITY   = .0012207
INCLINATION    = 97.7384
RA_OF_ASC_NODE = 271.5826
ARG_OF_PERICENTER = 289.5073
MEAN_ANOMALY   = 70.4827

EPHEMERIS_TYPE = 0
CLASSIFICATION_TYPE = U
NORAD_CAT_ID   = 66659
ELEMENT_SET_NO = 999
REV_AT_EPOCH   = 204
BSTAR          = .42579E-3
MEAN_MOTION_DOT = .4352E-4
MEAN_MOTION_DDOT = 0

