COSMOS 2598 (RODNIK-S *)
1 66648U 25273B   25344.53448771  .00000028  00000+0  12968-3 0  9994
2 66648  82.5033 287.8213 0007246 256.5087 103.5185 12.42861583  1864
COSMOS 2599 (RODNIK-S *)
1 66649U 25273C   25344.38251012  .00000064  00000+0  40010-3 0  9997
2 66649  82.5026 287.9284 0008136 305.4049  54.6269 12.41671984  1847
BEE-1000                
1 66650U 25274A   25344.33751762  .00002831  00000+0  28710-3 0  9999
2 66650  97.7386 271.5692 0010419 260.6819  99.3221 14.91647427  2041
2025-274B               
1 66651U 25274B   25344.33679819  .00006109  00000+0  61088-3 0  9999
2 66651  97.7379 271.5695 0010712 259.8206 100.1804 14.91766828  2048
2025-274C               
1 66652U 25274C   25344.33553059  .00003847  00000+0  38582-3 0  9996
2 66652  97.7386 271.5720 0010411 266.7260  93.2768 14.91880135  2048
2025-274D               
1 66653U 25274D   25344.33546833  .00003910  00000+0  39192-3 0  9998
2 66653  97.7384 271.5718 0011259 262.6994  97.2945 14.91884330  2046
JACK E                  
1 66654U 25274E   25344.33394522  .00004347  00000+0  43316-3 0  9993
2 66654  97.7386 271.5743 0011853 264.3937  95.5930 14.92059862  2043
2025-274F               
1 66655U 25274F   25342.78970739  .00015539  00000+0  15161-2 0  9992
2 66655  97.7329 270.0601 0005490 323.8556  36.2292 14.92504145  1812
2025-274G               
1 66656U 25274G   25344.46638161  .00004784  00000+0  47377-3 0  9995
2 66656  97.7384 271.7079 0012463 265.7043  94.2752 14.92250338  2069
SPIRONE                 
1 66657U 25274H   25344.33064006  .00004676  00000+0  46130-3 0  9999
2 66657  97.7383 271.5777 0010893 285.0273  74.9740 14.92428566  2047
2025-274J               
1 66658U 25274J   25344.32904391  .00004495  00000+0  44167-3 0  9996
2 66658  97.7383 271.5800 0011492 288.0927  71.9040 14.92600467  2042
JACK K                  
1 66659U 25274K   25344.32734500  .00004352  00000+0  42579-3 0  9997
2 66659  97.7384 271.5826 0012207 289.5073  70.4827 14.92785796  2041
